start=new Date('2022-03-01T00:00:00.000Z').valueOf();
sats=[{"INCLINATION":"53.0557","LAUNCH_DATE":"2020-08-07","RA_OF_ASC_NODE":"214.9947","EPOCH":"2022-02-28T20:17:24.153216","ECCENTRICITY":"0.00015050","MEAN_ANOMALY":"294.0388","SITE":"AFETR","CLASSIFICATION_TYPE":"U","ELEMENT_SET_NO":"999","DECAY_DATE":null,"FILE":"3334872","TLE_LINE2":"2 46077  53.0557 214.9947 0001505  66.0759 294.0388 15.06400126 87724","COUNTRY_CODE":"US","APOAPSIS":"548.255","NORAD_CAT_ID":"46077","REV_AT_EPOCH":"8772","OBJECT_TYPE":"PAYLOAD","OBJECT_ID":"2020-055BC","RCS_SIZE":"LARGE","EPHEMERIS_TYPE":"0","MEAN_ELEMENT_THEORY":"SGP4","BSTAR":"0.00012198000000","TLE_LINE1":"1 46077U 20055BC  22059.84541844  .00001536  00000-0  12198-3 0  9991","REF_FRAME":"TEME","ARG_OF_PERICENTER":"66.0759","TIME_SYSTEM":"UTC","GP_ID":"197408393","PERIAPSIS":"546.171","MEAN_MOTION":"15.06400126","CENTER_NAME":"EARTH","SEMIMAJOR_AXIS":"6925.348","PERIOD":"95.592","MEAN_MOTION_DOT":"0.00001536","OBJECT_NAME":"STARLINK-1559","MEAN_MOTION_DDOT":"0.0000000000000"},{"EPOCH":"2022-02-28T19:45:33.132960","RA_OF_ASC_NODE":"215.1145","LAUNCH_DATE":"2020-08-07","INCLINATION":"53.0543","DECAY_DATE":null,"ELEMENT_SET_NO":"999","CLASSIFICATION_TYPE":"U","SITE":"AFETR","MEAN_ANOMALY":"289.8031","ECCENTRICITY":"0.00014490","RCS_SIZE":"LARGE","OBJECT_ID":"2020-055BD","OBJECT_TYPE":"PAYLOAD","REV_AT_EPOCH":"8773","APOAPSIS":"548.208","NORAD_CAT_ID":"46078","COUNTRY_CODE":"US","TLE_LINE2":"2 46078  53.0543 215.1145 0001449  70.3114 289.8031 15.06402836 87731","FILE":"3334872","OBJECT_NAME":"STARLINK-1563","MEAN_MOTION_DDOT":"0.0000000000000","MEAN_MOTION_DOT":"0.00002331","PERIOD":"95.592","SEMIMAJOR_AXIS":"6925.340","GP_ID":"197409145","CENTER_NAME":"EARTH","PERIAPSIS":"546.201","MEAN_MOTION":"15.06402836","TIME_SYSTEM":"UTC","ARG_OF_PERICENTER":"70.3114","REF_FRAME":"TEME","TLE_LINE1":"1 46078U 20055BD  22059.82330015  .00002331  00000-0  17530-3 0  9995","BSTAR":"0.00017530000000","EPHEMERIS_TYPE":"0","MEAN_ELEMENT_THEORY":"SGP4"},{"RA_OF_ASC_NODE":"215.4342","LAUNCH_DATE":"2020-08-07","INCLINATION":"53.0521","EPOCH":"2022-02-28T17:59:23.769024","SITE":"AFETR","MEAN_ANOMALY":"283.0551","ECCENTRICITY":"0.00015160","DECAY_DATE":null,"CLASSIFICATION_TYPE":"U","ELEMENT_SET_NO":"999","OBJECT_TYPE":"PAYLOAD","REV_AT_EPOCH":"8775","NORAD_CAT_ID":"46079","APOAPSIS":"548.216","COUNTRY_CODE":"US","TLE_LINE2":"2 46079  53.0521 215.4342 0001516  77.0607 283.0551 15.06415455 87752","FILE":"3334872","RCS_SIZE":"LARGE","OBJECT_ID":"2020-055BE","TLE_LINE1":"1 46079U 20055BE  22059.74958066  .00006371  00000-0  44601-3 0  9996","BSTAR":"0.00044601000000","EPHEMERIS_TYPE":"0","MEAN_ELEMENT_THEORY":"SGP4","OBJECT_NAME":"STARLINK-1566","MEAN_MOTION_DDOT":"0.0000000000000","MEAN_MOTION_DOT":"0.00006371","PERIOD":"95.591","SEMIMAJOR_AXIS":"6925.301","GP_ID":"197409895","PERIAPSIS":"546.116","CENTER_NAME":"EARTH","MEAN_MOTION":"15.06415455","TIME_SYSTEM":"UTC","ARG_OF_PERICENTER":"77.0607","REF_FRAME":"TEME"},{"REV_AT_EPOCH":"8772","OBJECT_TYPE":"PAYLOAD","TLE_LINE2":"2 46080  53.0532 215.6125 0001498  84.9178 275.1982 15.06399616 87723","FILE":"3334872","APOAPSIS":"548.252","NORAD_CAT_ID":"46080","COUNTRY_CODE":"US","OBJECT_ID":"2020-055BF","RCS_SIZE":"LARGE","TLE_LINE1":"1 46080U 20055BF  22059.70904019  .00001326  00000-0  10792-3 0  9992","BSTAR":"0.00010792000000","EPHEMERIS_TYPE":"0","MEAN_ELEMENT_THEORY":"SGP4","PERIOD":"95.592","SEMIMAJOR_AXIS":"6925.350","OBJECT_NAME":"STARLINK-1568","MEAN_MOTION_DDOT":"0.0000000000000","MEAN_MOTION_DOT":"0.00001326","ARG_OF_PERICENTER":"84.9178","TIME_SYSTEM":"UTC","REF_FRAME":"TEME","GP_ID":"197408643","PERIAPSIS":"546.177","CENTER_NAME":"EARTH","MEAN_MOTION":"15.06399616","LAUNCH_DATE":"2020-08-07","RA_OF_ASC_NODE":"215.6125","INCLINATION":"53.0532","EPOCH":"2022-02-28T17:01:01.072416","SITE":"AFETR","ECCENTRICITY":"0.00014980","MEAN_ANOMALY":"275.1982","ELEMENT_SET_NO":"999","CLASSIFICATION_TYPE":"U","DECAY_DATE":null},{"DECAY_DATE":null,"ELEMENT_SET_NO":"999","CLASSIFICATION_TYPE":"U","MEAN_ANOMALY":"272.8525","ECCENTRICITY":"0.00012600","SITE":"AFETR","EPOCH":"2022-02-28T20:59:52.342368","INCLINATION":"53.0517","RA_OF_ASC_NODE":"214.8690","LAUNCH_DATE":"2020-08-07","GP_ID":"197408893","MEAN_MOTION":"15.06397520","PERIAPSIS":"546.349","CENTER_NAME":"EARTH","REF_FRAME":"TEME","ARG_OF_PERICENTER":"87.2609","TIME_SYSTEM":"UTC","MEAN_MOTION_DOT":"0.00002189","MEAN_MOTION_DDOT":"0.0000000000000","OBJECT_NAME":"STARLINK-1571","SEMIMAJOR_AXIS":"6925.356","PERIOD":"95.592","EPHEMERIS_TYPE":"0","MEAN_ELEMENT_THEORY":"SGP4","BSTAR":"0.00016580000000","TLE_LINE1":"1 46081U 20055BG  22059.87491137  .00002189  00000-0  16580-3 0  9992","RCS_SIZE":"LARGE","OBJECT_ID":"2020-055BG","COUNTRY_CODE":"US","NORAD_CAT_ID":"46081","APOAPSIS":"548.094","TLE_LINE2":"2 46081  53.0517 214.8690 0001260  87.2609 272.8525 15.06397520 87760","FILE":"3334872","OBJECT_TYPE":"PAYLOAD","REV_AT_EPOCH":"8776"},{"CENTER_NAME":"EARTH","GP_ID":"197409645","PERIAPSIS":"546.241","MEAN_MOTION":"15.06402985","REF_FRAME":"TEME","TIME_SYSTEM":"UTC","ARG_OF_PERICENTER":"44.4905","MEAN_MOTION_DOT":"0.00002971","OBJECT_NAME":"STARLINK-1578","MEAN_MOTION_DDOT":"0.0000000000000","SEMIMAJOR_AXIS":"6925.339","PERIOD":"95.592","EPHEMERIS_TYPE":"0","MEAN_ELEMENT_THEORY":"SGP4","BSTAR":"0.00021825000000","TLE_LINE1":"1 46082U 20055BH  22059.69798017  .00002971  00000-0  21825-3 0  9997","RCS_SIZE":"LARGE","OBJECT_ID":"2020-055BH","COUNTRY_CODE":"US","APOAPSIS":"548.168","NORAD_CAT_ID":"46082","TLE_LINE2":"2 46082  53.0556 215.6578 0001391  44.4905 315.6196 15.06402985 87747","FILE":"3334872","OBJECT_TYPE":"PAYLOAD","REV_AT_EPOCH":"8774","DECAY_DATE":null,"ELEMENT_SET_NO":"999","CLASSIFICATION_TYPE":"U","MEAN_ANOMALY":"315.6196","ECCENTRICITY":"0.00013910","SITE":"AFETR","EPOCH":"2022-02-28T16:45:05.486688","INCLINATION":"53.0556","RA_OF_ASC_NODE":"215.6578","LAUNCH_DATE":"2020-08-07"},{"SITE":"AFETR","ECCENTRICITY":"0.00012200","MEAN_ANOMALY":"269.2581","CLASSIFICATION_TYPE":"U","ELEMENT_SET_NO":"999","DECAY_DATE":null,"LAUNCH_DATE":"2020-08-07","RA_OF_ASC_NODE":"215.1951","INCLINATION":"53.0524","EPOCH":"2022-02-28T19:13:42.001248","BSTAR":"-0.00009949800000","TLE_LINE1":"1 46083U 20055BJ  22059.80118057 -.00001764  00000-0 -99498-4 0  9994","MEAN_ELEMENT_THEORY":"SGP4","EPHEMERIS_TYPE":"0","SEMIMAJOR_AXIS":"6925.301","PERIOD":"95.591","MEAN_MOTION_DOT":"-0.00001764","OBJECT_NAME":"STARLINK-1579","MEAN_MOTION_DDOT":"0.0000000000000","REF_FRAME":"TEME","ARG_OF_PERICENTER":"90.8548","TIME_SYSTEM":"UTC","GP_ID":"197409396","MEAN_MOTION":"15.06415627","PERIAPSIS":"546.321","CENTER_NAME":"EARTH","REV_AT_EPOCH":"8775","OBJECT_TYPE":"PAYLOAD","TLE_LINE2":"2 46083  53.0524 215.1951 0001220  90.8548 269.2581 15.06415627 87752","FILE":"3334872","COUNTRY_CODE":"US","APOAPSIS":"548.011","NORAD_CAT_ID":"46083","OBJECT_ID":"2020-055BJ","RCS_SIZE":"LARGE"},{"ECCENTRICITY":"0.00016570","MEAN_ANOMALY":"299.7182","SITE":"AFETR","CLASSIFICATION_TYPE":"U","ELEMENT_SET_NO":"999","DECAY_DATE":null,"INCLINATION":"53.0539","LAUNCH_DATE":"2020-08-18","RA_OF_ASC_NODE":"55.6526","EPOCH":"2022-02-28T16:50:24.382176","EPHEMERIS_TYPE":"0","MEAN_ELEMENT_THEORY":"SGP4","BSTAR":"0.00008878000000","TLE_LINE1":"1 46117U 20057A   22059.70167109  .00001041  00000-0  88780-4 0  9993","REF_FRAME":"TEME","ARG_OF_PERICENTER":"60.3972","TIME_SYSTEM":"UTC","CENTER_NAME":"EARTH","GP_ID":"197408148","PERIAPSIS":"546.054","MEAN_MOTION":"15.06403795","SEMIMAJOR_AXIS":"6925.337","PERIOD":"95.592","MEAN_MOTION_DOT":"0.00001041","MEAN_MOTION_DDOT":"0.0000000000000","OBJECT_NAME":"STARLINK-1585","FILE":"3334872","TLE_LINE2":"2 46117  53.0539  55.6526 0001657  60.3972 299.7182 15.06403795 84786","COUNTRY_CODE":"US","APOAPSIS":"548.349","NORAD_CAT_ID":"46117","REV_AT_EPOCH":"8478","OBJECT_TYPE":"PAYLOAD","OBJECT_ID":"2020-057A","RCS_SIZE":"LARGE"},{"MEAN_ELEMENT_THEORY":"SGP4","EPHEMERIS_TYPE":"0","BSTAR":"0.00008799700000","TLE_LINE1":"1 46118U 20057B   22059.77723823  .00001029  00000-0  87997-4 0  9997","REF_FRAME":"TEME","ARG_OF_PERICENTER":"60.2284","TIME_SYSTEM":"UTC","GP_ID":"197408398","MEAN_MOTION":"15.06404953","PERIAPSIS":"545.961","CENTER_NAME":"EARTH","SEMIMAJOR_AXIS":"6925.333","PERIOD":"95.592","MEAN_MOTION_DOT":"0.00001029","OBJECT_NAME":"STARLINK-1588","MEAN_MOTION_DDOT":"0.0000000000000","TLE_LINE2":"2 46118  53.0539  75.3090 0001787  60.2284 299.8882 15.06404953 85798","FILE":"3334872","COUNTRY_CODE":"US","APOAPSIS":"548.436","NORAD_CAT_ID":"46118","REV_AT_EPOCH":"8579","OBJECT_TYPE":"PAYLOAD","OBJECT_ID":"2020-057B","RCS_SIZE":"LARGE","ECCENTRICITY":"0.00017870","MEAN_ANOMALY":"299.8882","SITE":"AFETR","ELEMENT_SET_NO":"999","CLASSIFICATION_TYPE":"U","DECAY_DATE":null,"INCLINATION":"53.0539","LAUNCH_DATE":"2020-08-18","RA_OF_ASC_NODE":"75.3090","EPOCH":"2022-02-28T18:39:13.383072"},{"EPOCH":"2022-02-28T08:50:03.716448","LAUNCH_DATE":"2020-08-18","RA_OF_ASC_NODE":"77.1599","INCLINATION":"53.0552","CLASSIFICATION_TYPE":"U","ELEMENT_SET_NO":"999","DECAY_DATE":null,"SITE":"AFETR","ECCENTRICITY":"0.00016690","MEAN_ANOMALY":"305.6710","OBJECT_ID":"2020-057C","RCS_SIZE":"LARGE","REV_AT_EPOCH":"8571","OBJECT_TYPE":"PAYLOAD","TLE_LINE2":"2 46119  53.0552  77.1599 0001669  54.4435 305.6710 15.06402508 85712","FILE":"3333642","COUNTRY_CODE":"US","NORAD_CAT_ID":"46119","APOAPSIS":"548.362","SEMIMAJOR_AXIS":"6925.341","PERIOD":"95.592","MEAN_MOTION_DOT":"0.00001311","OBJECT_NAME":"STARLINK-1593","MEAN_MOTION_DDOT":"0.0000000000000","REF_FRAME":"TEME","TIME_SYSTEM":"UTC","ARG_OF_PERICENTER":"54.4435","GP_ID":"197359763","PERIAPSIS":"546.050","CENTER_NAME":"EARTH","MEAN_MOTION":"15.06402508","BSTAR":"0.00010687000000","TLE_LINE1":"1 46119U 20057C   22059.36809857  .00001311  00000-0  10687-3 0  9990","EPHEMERIS_TYPE":"0","MEAN_ELEMENT_THEORY":"SGP4"}];
